O3B FM20                
1 44112U 19020A   26095.05203959 -.00000025  00000+0  00000+0 0  9995
2 44112   0.0530   0.9141 0002663   2.6728 356.4138  5.00115564127905
O3B FM19                
1 44113U 19020B   26095.07913541 -.00000026  00000+0  00000+0 0  9994
2 44113   0.0578 352.7385 0004290  10.0637 357.1990  5.00116062127780
O3B FM17                
1 44114U 19020C   26095.75889113 -.00000025  00000+0  00000+0 0  9996
2 44114   0.0358 348.7511 0002633  22.7857 348.4681  5.00115517127904
O3B FM18                
1 44115U 19020D   26095.70519481 -.00000025  00000+0  00000+0 0  9990
2 44115   0.0533   1.1669 0002731  14.3141 344.5262  5.00115358128025
SALSAT                  
1 46495U 20068K   26095.58020954  .00009877  00000+0  35593-3 0  9997
2 46495  97.8868  94.2870 0009619 186.5581 173.5533 15.28738181304261
O3B MPOWER F1           
1 54755U 22174A   26095.00433162 -.00000026  00000+0  00000+0 0  9990
2 54755   0.0622 348.9934 0005641  43.4576   5.1082  5.00114922 61695
O3B MPOWER F2           
1 54756U 22174B   26095.15002366 -.00000026  00000+0  00000+0 0  9995
2 54756   0.0593 346.1754 0005932  27.2945 346.5447  5.00115573 61797
O3B MPOWER F4           
1 56367U 23059A   26095.61414291 -.00000025  00000+0  00000+0 0  9992
2 56367   0.0643   4.4262 0007051  24.5317 331.0801  5.00116099 54977
O3B MPOWER F3           
1 56368U 23059B   26095.64744129 -.00000025  00000+0  00000+0 0  9992
2 56368   0.0654   4.4262 0006597  14.1633 341.4335  5.00116689 51104
O3B MPOWER F9           
1 64866U 25153A   26095.61564383 -.00000025  00000+0  00000+0 0  9990
2 64866   0.0512  14.9752 0005188  25.9093 319.1532  5.00116263 15934
O3B MPOWER F10          
1 64867U 25153B   26095.78138816 -.00000025  00000+0  00000+0 0  9997
2 64867   0.0519   9.9571 0003552 256.9952  93.0060  5.00115053 18403
